[{"OBJECT_NAME":"OBJECT D","OBJECT_ID":"2024-085D","EPOCH":"2026-03-09T22:53:13.410816","MEAN_MOTION":15.33413141,"ECCENTRICITY":0.00152451,"INCLINATION":97.3312,"RA_OF_ASC_NODE":145.3953,"ARG_OF_PERICENTER":54.9672,"MEAN_ANOMALY":305.2998,"EPHEMERIS_TYPE":0,"CLASSIFICATION_TYPE":"U","NORAD_CAT_ID":59680,"ELEMENT_SET_NO":999,"REV_AT_EPOCH":10244,"BSTAR":0.00049264705,"MEAN_MOTION_DOT":0.00015903,"MEAN_MOTION_DDOT":0},{"OBJECT_NAME":"STARLINK-35968","OBJECT_ID":"2025-271V","EPOCH":"2026-03-09T11:47:29.103648","MEAN_MOTION":15.30186599,"ECCENTRICITY":0.00010821,"INCLINATION":53.1577,"RA_OF_ASC_NODE":141.0485,"ARG_OF_PERICENTER":82.9488,"MEAN_ANOMALY":277.1636,"EPHEMERIS_TYPE":0,"CLASSIFICATION_TYPE":"U","NORAD_CAT_ID":66636,"ELEMENT_SET_NO":999,"REV_AT_EPOCH":1753,"BSTAR":0.0012129133,"MEAN_MOTION_DOT":0.00035722,"MEAN_MOTION_DDOT":0}]
